start=new Date('2022-08-06T00:00:00.000Z').valueOf();
sats=[{"ECCENTRICITY":"0.00015540","COUNTRY_CODE":"US","MEAN_ANOMALY":"271.9965","MEAN_ELEMENT_THEORY":"SGP4","PERIAPSIS":"546.128","OBJECT_TYPE":"PAYLOAD","MEAN_MOTION_DOT":"0.00001120","BSTAR":"0.00009407600000","CLASSIFICATION_TYPE":"U","REV_AT_EPOCH":"7677","MEAN_MOTION":"15.06402893","SITE":"AFETR","DECAY_DATE":null,"TLE_LINE2":"2 48026  53.0545 105.8022 0001554  88.1202 271.9965 15.06402893 76772","PERIOD":"95.592","OBJECT_ID":"2021-024BB","OBJECT_NAME":"STARLINK-2278","INCLINATION":"53.0545","APOAPSIS":"548.281","MEAN_MOTION_DDOT":"0.0000000000000","RA_OF_ASC_NODE":"105.8022","FILE":"3530042","CENTER_NAME":"EARTH","RCS_SIZE":"LARGE","SEMIMAJOR_AXIS":"6925.340","EPOCH":"2022-08-05T19:47:40.686144","REF_FRAME":"TEME","ELEMENT_SET_NO":"999","ARG_OF_PERICENTER":"88.1202","LAUNCH_DATE":"2021-03-24","NORAD_CAT_ID":"48026","TIME_SYSTEM":"UTC","GP_ID":"209655936","TLE_LINE1":"1 48026U 21024BB  22217.82477646  .00001120  00000-0  94076-4 0  9991","EPHEMERIS_TYPE":"0"},{"MEAN_MOTION":"15.06403510","REV_AT_EPOCH":"7710","CLASSIFICATION_TYPE":"U","BSTAR":"0.00007999700000","PERIOD":"95.592","TLE_LINE2":"2 48027  53.0543  81.2843 0001354  91.8051 268.3093 15.06403510 77107","OBJECT_NAME":"STARLINK-2300","OBJECT_ID":"2021-024BC","DECAY_DATE":null,"SITE":"AFETR","PERIAPSIS":"546.265","OBJECT_TYPE":"PAYLOAD","MEAN_ANOMALY":"268.3093","MEAN_ELEMENT_THEORY":"SGP4","ECCENTRICITY":"0.00013540","COUNTRY_CODE":"US","MEAN_MOTION_DOT":"0.00000910","ARG_OF_PERICENTER":"91.8051","ELEMENT_SET_NO":"999","EPHEMERIS_TYPE":"0","GP_ID":"209657187","TLE_LINE1":"1 48027U 21024BC  22217.71834549  .00000910  00000-0  79997-4 0  9990","TIME_SYSTEM":"UTC","LAUNCH_DATE":"2021-03-24","NORAD_CAT_ID":"48027","FILE":"3530042","CENTER_NAME":"EARTH","RCS_SIZE":"LARGE","APOAPSIS":"548.140","INCLINATION":"53.0543","RA_OF_ASC_NODE":"81.2843","MEAN_MOTION_DDOT":"0.0000000000000","REF_FRAME":"TEME","EPOCH":"2022-08-05T17:14:25.050336","SEMIMAJOR_AXIS":"6925.338"},{"MEAN_MOTION_DOT":"0.00000908","OBJECT_TYPE":"PAYLOAD","PERIAPSIS":"546.193","ECCENTRICITY":"0.00014940","COUNTRY_CODE":"US","MEAN_ANOMALY":"280.6031","MEAN_ELEMENT_THEORY":"SGP4","OBJECT_ID":"2021-024BD","OBJECT_NAME":"STARLINK-2264","TLE_LINE2":"2 48028  53.0556  37.0563 0001494  79.5126 280.6031 15.06395357 77772","PERIOD":"95.592","SITE":"AFETR","DECAY_DATE":null,"MEAN_MOTION":"15.06395357","REV_AT_EPOCH":"7777","BSTAR":"0.00007986600000","CLASSIFICATION_TYPE":"U","REF_FRAME":"TEME","SEMIMAJOR_AXIS":"6925.363","EPOCH":"2022-08-05T15:15:44.271648","RCS_SIZE":"LARGE","CENTER_NAME":"EARTH","FILE":"3530042","MEAN_MOTION_DDOT":"0.0000000000000","RA_OF_ASC_NODE":"37.0563","INCLINATION":"53.0556","APOAPSIS":"548.262","TLE_LINE1":"1 48028U 21024BD  22217.63592907  .00000908  00000-0  79866-4 0  9993","GP_ID":"209656929","EPHEMERIS_TYPE":"0","LAUNCH_DATE":"2021-03-24","NORAD_CAT_ID":"48028","TIME_SYSTEM":"UTC","ARG_OF_PERICENTER":"79.5126","ELEMENT_SET_NO":"999"},{"CLASSIFICATION_TYPE":"U","BSTAR":"0.00000082915000","REV_AT_EPOCH":"7690","MEAN_MOTION":"15.06397341","DECAY_DATE":null,"SITE":"AFETR","OBJECT_ID":"2021-024BE","OBJECT_NAME":"STARLINK-2299","PERIOD":"95.592","TLE_LINE2":"2 48029  53.0526 100.8194 0001790  66.8296 293.2882 15.06397341 76908","MEAN_ELEMENT_THEORY":"SGP4","MEAN_ANOMALY":"293.2882","COUNTRY_CODE":"US","ECCENTRICITY":"0.00017900","OBJECT_TYPE":"PAYLOAD","PERIAPSIS":"545.982","MEAN_MOTION_DOT":"-0.00000269","ELEMENT_SET_NO":"999","ARG_OF_PERICENTER":"66.8296","TIME_SYSTEM":"UTC","LAUNCH_DATE":"2021-03-24","NORAD_CAT_ID":"48029","EPHEMERIS_TYPE":"0","TLE_LINE1":"1 48029U 21024BE  22217.82339897 -.00000269  00000-0  82915-6 0  9994","GP_ID":"209655687","RA_OF_ASC_NODE":"100.8194","MEAN_MOTION_DDOT":"0.0000000000000","APOAPSIS":"548.461","INCLINATION":"53.0526","RCS_SIZE":"LARGE","CENTER_NAME":"EARTH","FILE":"3530042","EPOCH":"2022-08-05T19:45:41.671008","SEMIMAJOR_AXIS":"6925.357","REF_FRAME":"TEME"},{"TIME_SYSTEM":"UTC","LAUNCH_DATE":"2021-03-24","NORAD_CAT_ID":"48030","EPHEMERIS_TYPE":"0","GP_ID":"209656436","TLE_LINE1":"1 48030U 21024BF  22217.78423916 -.00000756  00000-0 -31897-4 0  9990","ELEMENT_SET_NO":"999","ARG_OF_PERICENTER":"58.3760","EPOCH":"2022-08-05T18:49:18.263424","SEMIMAJOR_AXIS":"6925.377","REF_FRAME":"TEME","MEAN_MOTION_DDOT":"0.0000000000000","RA_OF_ASC_NODE":"105.9898","APOAPSIS":"548.330","INCLINATION":"53.0555","RCS_SIZE":"LARGE","FILE":"3530042","CENTER_NAME":"EARTH","SITE":"AFETR","DECAY_DATE":null,"OBJECT_ID":"2021-024BF","OBJECT_NAME":"STARLINK-2268","PERIOD":"95.593","TLE_LINE2":"2 48030  53.0555 105.9898 0001570  58.3760 301.7382 15.06390582 76761","CLASSIFICATION_TYPE":"U","BSTAR":"-0.00003189700000","REV_AT_EPOCH":"7676","MEAN_MOTION":"15.06390582","MEAN_MOTION_DOT":"-0.00000756","MEAN_ANOMALY":"301.7382","MEAN_ELEMENT_THEORY":"SGP4","COUNTRY_CODE":"US","ECCENTRICITY":"0.00015700","OBJECT_TYPE":"PAYLOAD","PERIAPSIS":"546.155"},{"REV_AT_EPOCH":"7834","MEAN_MOTION":"15.06396737","CLASSIFICATION_TYPE":"U","BSTAR":"0.00009892800000","OBJECT_NAME":"STARLINK-2267","OBJECT_ID":"2021-024BG","PERIOD":"95.592","TLE_LINE2":"2 48031  53.0550 352.0198 0001555  68.6569 291.4586 15.06396737 78344","DECAY_DATE":null,"SITE":"AFETR","OBJECT_TYPE":"PAYLOAD","PERIAPSIS":"546.147","MEAN_ANOMALY":"291.4586","MEAN_ELEMENT_THEORY":"SGP4","ECCENTRICITY":"0.00015550","COUNTRY_CODE":"US","MEAN_MOTION_DOT":"0.00001192","ARG_OF_PERICENTER":"68.6569","ELEMENT_SET_NO":"999","EPHEMERIS_TYPE":"0","TLE_LINE1":"1 48031U 21024BG  22217.55709265  .00001192  00000-0  98928-4 0  9991","GP_ID":"209656688","TIME_SYSTEM":"UTC","LAUNCH_DATE":"2021-03-24","NORAD_CAT_ID":"48031","RCS_SIZE":"LARGE","CENTER_NAME":"EARTH","FILE":"3530042","MEAN_MOTION_DDOT":"0.0000000000000","RA_OF_ASC_NODE":"352.0198","APOAPSIS":"548.300","INCLINATION":"53.0550","REF_FRAME":"TEME","EPOCH":"2022-08-05T13:22:12.804960","SEMIMAJOR_AXIS":"6925.359"},{"MEAN_MOTION_DOT":"0.00000172","PERIAPSIS":"545.896","OBJECT_TYPE":"PAYLOAD","COUNTRY_CODE":"US","ECCENTRICITY":"0.00018810","MEAN_ANOMALY":"278.2606","MEAN_ELEMENT_THEORY":"SGP4","TLE_LINE2":"2 48033  53.0559 101.4761 0001881  81.8596 278.2606 15.06404932 76886","PERIOD":"95.592","OBJECT_ID":"2021-024BJ","OBJECT_NAME":"STARLINK-2286","SITE":"AFETR","DECAY_DATE":null,"MEAN_MOTION":"15.06404932","REV_AT_EPOCH":"7688","BSTAR":"0.00003044300000","CLASSIFICATION_TYPE":"U","REF_FRAME":"TEME","SEMIMAJOR_AXIS":"6925.333","EPOCH":"2022-08-05T16:18:40.893408","FILE":"3530042","CENTER_NAME":"EARTH","RCS_SIZE":"LARGE","INCLINATION":"53.0559","APOAPSIS":"548.501","MEAN_MOTION_DDOT":"0.0000000000000","RA_OF_ASC_NODE":"101.4761","GP_ID":"209657429","TLE_LINE1":"1 48033U 21024BJ  22217.67963997  .00000172  00000-0  30443-4 0  9995","EPHEMERIS_TYPE":"0","LAUNCH_DATE":"2021-03-24","NORAD_CAT_ID":"48033","TIME_SYSTEM":"UTC","ARG_OF_PERICENTER":"81.8596","ELEMENT_SET_NO":"999"},{"TLE_LINE2":"2 48034  53.0555 101.6805 0001585  77.3589 282.7577 15.06393063 76875","PERIOD":"95.593","OBJECT_NAME":"STARLINK-2288","OBJECT_ID":"2021-024BK","DECAY_DATE":null,"SITE":"AFETR","REV_AT_EPOCH":"7687","MEAN_MOTION":"15.06393063","BSTAR":"0.00004612400000","CLASSIFICATION_TYPE":"U","MEAN_MOTION_DOT":"0.00000405","PERIAPSIS":"546.137","OBJECT_TYPE":"PAYLOAD","ECCENTRICITY":"0.00015850","COUNTRY_CODE":"US","MEAN_ELEMENT_THEORY":"SGP4","MEAN_ANOMALY":"282.7577","GP_ID":"209656187","TLE_LINE1":"1 48034U 21024BK  22217.63173311  .00000405  00000-0  46124-4 0  9997","EPHEMERIS_TYPE":"0","LAUNCH_DATE":"2021-03-24","NORAD_CAT_ID":"48034","TIME_SYSTEM":"UTC","ARG_OF_PERICENTER":"77.3589","ELEMENT_SET_NO":"999","REF_FRAME":"TEME","SEMIMAJOR_AXIS":"6925.370","EPOCH":"2022-08-05T15:09:41.740704","FILE":"3530042","CENTER_NAME":"EARTH","RCS_SIZE":"LARGE","INCLINATION":"53.0555","APOAPSIS":"548.332","MEAN_MOTION_DDOT":"0.0000000000000","RA_OF_ASC_NODE":"101.6805"},{"RCS_SIZE":"LARGE","FILE":"3530042","CENTER_NAME":"EARTH","MEAN_MOTION_DDOT":"0.0000000000000","RA_OF_ASC_NODE":"101.3617","INCLINATION":"53.0557","APOAPSIS":"548.331","REF_FRAME":"TEME","SEMIMAJOR_AXIS":"6925.323","EPOCH":"2022-08-05T16:55:51.432096","ARG_OF_PERICENTER":"77.1764","ELEMENT_SET_NO":"999","TLE_LINE1":"1 48036U 21024BM  22217.70545639 -.00005036  00000-0 -31937-3 0  9995","GP_ID":"209655937","EPHEMERIS_TYPE":"0","NORAD_CAT_ID":"48036","LAUNCH_DATE":"2021-03-24","TIME_SYSTEM":"UTC","OBJECT_TYPE":"PAYLOAD","PERIAPSIS":"546.046","ECCENTRICITY":"0.00016500","COUNTRY_CODE":"US","MEAN_ELEMENT_THEORY":"SGP4","MEAN_ANOMALY":"282.9409","MEAN_MOTION_DOT":"-0.00005036","MEAN_MOTION":"15.06408256","REV_AT_EPOCH":"7688","BSTAR":"-0.00031937000000","CLASSIFICATION_TYPE":"U","OBJECT_ID":"2021-024BM","OBJECT_NAME":"STARLINK-2295","TLE_LINE2":"2 48036  53.0557 101.3617 0001650  77.1764 282.9409 15.06408256 76881","PERIOD":"95.592","SITE":"AFETR","DECAY_DATE":null},{"ECCENTRICITY":"0.00014080","COUNTRY_CODE":"US","MEAN_ELEMENT_THEORY":"SGP4","MEAN_ANOMALY":"290.3305","PERIAPSIS":"546.249","OBJECT_TYPE":"PAYLOAD","MEAN_MOTION_DOT":"-0.00000801","BSTAR":"-0.00003487700000","CLASSIFICATION_TYPE":"U","REV_AT_EPOCH":"7528","MEAN_MOTION":"15.06396414","SITE":"AFETR","DECAY_DATE":null,"TLE_LINE2":"2 48092  53.0544 227.5013 0001408  69.7835 290.3305 15.06396414 75280","PERIOD":"95.592","OBJECT_ID":"2021-027A","OBJECT_NAME":"STARLINK-2048","INCLINATION":"53.0544","APOAPSIS":"548.200","RA_OF_ASC_NODE":"227.5013","MEAN_MOTION_DDOT":"0.0000000000000","CENTER_NAME":"EARTH","FILE":"3529930","RCS_SIZE":"LARGE","SEMIMAJOR_AXIS":"6925.360","EPOCH":"2022-08-05T12:16:34.910688","REF_FRAME":"TEME","ELEMENT_SET_NO":"999","ARG_OF_PERICENTER":"69.7835","LAUNCH_DATE":"2021-04-07","NORAD_CAT_ID":"48092","TIME_SYSTEM":"UTC","GP_ID":"209632668","TLE_LINE1":"1 48092U 21027A   22217.51151517 -.00000801  00000-0 -34877-4 0  9999","EPHEMERIS_TYPE":"0"}];
